OBJECT_NAME,OBJECT_ID,EPOCH,MEAN_MOTION,ECCENTRICITY,INCLINATION,RA_OF_ASC_NODE,ARG_OF_PERICENTER,MEAN_ANOMALY,EPHEMERIS_TYPE,CLASSIFICATION_TYPE,NORAD_CAT_ID,ELEMENT_SET_NO,REV_AT_EPOCH,BSTAR,MEAN_MOTION_DOT,MEAN_MOTION_DDOT
ASNARO-2,2018-007A,2026-06-11T23:50:45.364704,15.22416738,.00018613,97.3971,170.0016,93.2430,266.9019,0,U,43152,999,46662,.37840404E-3,.868E-4,0
JILIN-1 07,2018-008E,2026-06-11T22:36:26.169984,15.34634881,.00101572,97.1773,183.0103,80.7992,279.4400,0,U,43159,999,46419,.25244851E-3,.841E-4,0
JILIN-1 08,2018-008F,2026-06-11T22:31:51.551040,15.33653419,.0008101,97.1806,182.3292,94.3486,265.8683,0,U,43160,999,46414,.19305325E-3,.6211E-4,0
S-NET D,2018-014G,2026-06-11T23:39:35.425152,15.16623951,.00094343,97.5372,67.8093,46.1406,314.0605,0,U,43186,999,45797,.22292999E-3,.4294E-4,0
S-NET B,2018-014H,2026-06-11T17:35:53.884320,15.16592344,.00099578,97.5378,67.5446,42.2656,317.9343,0,U,43187,999,45793,.24717385E-3,.4765E-4,0
S-NET A,2018-014J,2026-06-11T17:17:59.025984,15.16629419,.0009847,97.5388,67.7398,43.1427,317.0576,0,U,43188,999,45793,.2245321E-3,.4327E-4,0
S-NET C,2018-014K,2026-06-11T16:06:25.787520,15.16583570,.00110294,97.5404,67.7643,35.4781,324.7183,0,U,43189,999,45647,.25776783E-3,.4973E-4,0
PAZ,2018-020A,2026-06-11T23:15:46.130688,15.19154494,.00016845,97.4447,170.4292,88.0451,272.0977,0,U,43215,999,46021,.78004056E-4,.1572E-4,0
GOES 17,2018-022A,2026-06-11T21:22:32.858112,1.00270721,.00004629,0.9230,85.8045,25.2793,20.2934,0,U,43226,999,3037,0,-.167E-5,0
LKW-4,2018-025A,2026-06-11T22:54:32.859072,15.61859911,.00017859,97.6337,333.4201,319.7690,40.3434,0,U,43236,999,45921,.46968636E-3,.40756E-3,0
ZHUHAI-1 OVS-02,2018-040B,2026-06-11T23:34:21.209088,15.24956347,.00014851,97.0390,180.5205,277.6848,82.4222,0,U,43440,999,45192,.28071673E-3,.693E-4,0
ZHUHAI-1 OHS-02,2018-040C,2026-06-11T23:17:03.756768,15.25805417,.00075672,97.0375,187.4435,241.9710,118.0764,0,U,43441,999,11348,.27246021E-3,.6903E-4,0
LUOJIA-1 01,2018-048B,2026-06-11T22:14:11.670144,14.87267070,.00099676,97.8104,241.1985,132.0303,228.1763,0,U,43485,999,43343,.21149728E-3,.1854E-4,0
PAKTES 1A,2018-056A,2026-06-11T23:57:59.090112,14.99085366,.0022353,98.1301,319.2641,122.3706,237.9683,0,U,43529,999,43114,.13520896E-3,.1584E-4,0
PRSS-1,2018-056B,2026-06-11T22:09:44.473824,14.81978358,.00016968,97.7822,230.9387,75.9996,284.1406,0,U,43530,999,42765,.22582285E-4,.128E-5,0
HAIYANG-1C,2018-068A,2026-06-11T22:37:36.406272,14.34177061,.00120108,98.5191,235.3263,108.0478,252.2016,0,U,43609,999,40633,.28127219E-4,.35E-6,0
SSTL S1-4,2018-071A,2026-06-11T22:31:38.356896,14.96177558,.00015243,97.5049,34.7719,101.9347,258.2046,0,U,43618,999,42215,.14840953E-3,.1617E-4,0
HAIYANG-2B,2018-081A,2026-06-11T22:33:54.605376,13.79305093,.00006432,99.3288,171.7754,11.5131,348.6035,0,U,43655,999,38420,-.27639592E-3,-.328E-5,0
CZ-4B R/B,2018-081B,2026-06-11T17:37:49.370880,14.31864226,.02037523,99.3683,80.2248,282.5636,75.2826,0,U,43656,999,39852,.42770253E-4,.83E-6,0
CFOSAT,2018-083A,2026-06-11T22:43:08.143392,15.16342358,.00024232,97.3602,167.6319,94.6306,265.5204,0,U,43662,999,42164,.16265361E-3,.3089E-4,0
TEN-KOH,2018-084G,2026-06-11T12:44:51.861120,15.02920830,.0010975,98.0781,354.6565,131.3558,228.8611,0,U,43677,999,41531,.1624E-3,.2116E-4,0
DIWATA-2B,2018-084H,2026-06-11T21:38:09.521376,15.00428452,.00122132,98.1180,358.8808,187.2831,172.8216,0,U,43678,999,41542,.21608271E-3,.2655E-4,0
STARS-AO,2018-084J,2026-06-11T12:47:26.131776,15.16990917,.0002518,98.0515,16.1563,149.6386,210.4991,0,U,43679,999,41661,.30143E-3,.588E-4,0
AUTCUBE 2,2018-084K,2026-06-11T12:45:43.485120,15.10050735,.0010208,98.0717,8.4070,66.2534,293.9763,0,U,43681,999,41607,.22292E-3,.3559E-4,0
METOP-C,2018-087A,2026-06-11T20:37:30.170208,14.21510658,.00015759,98.6645,222.5601,135.3148,224.8156,0,U,43689,999,39407,.55141949E-4,.77E-6,0
ES'HAIL 2,2018-090A,2026-06-11T22:47:45.269664,1.00267802,.00015709,0.0178,322.8967,154.1393,151.0085,0,U,43700,999,2762,0,.16E-5,0
MOHAMMED VI-B,2018-095A,2026-06-11T23:03:36.968256,14.77110203,.00012435,97.9557,235.3579,95.6187,264.5165,0,U,43717,999,40741,.79463865E-4,.511E-5,0
HYSIS,2018-096A,2026-06-11T22:23:53.880864,14.78683592,.0001793,97.9843,229.7223,111.0098,249.1305,0,U,43719,999,40664,.90531271E-4,.612E-5,0
COSMOS 2530 (RODNIK-S 16),2018-097A,2026-06-11T23:36:07.039584,12.42881247,.00203697,82.5147,225.5096,50.5888,309.6991,0,U,43751,999,34164,.64247985E-3,.99E-6,0
