{"_default": { "9": {"norad_id": "43700", "name": "ES'HAIL 2", "tle1": "1 43700U 18090A   26162.94982951  .00000160  00000-0  00000-0 0  9993", "tle2": "2 43700   0.0178 322.8967 0001571 154.1393 151.0085  1.00267802 27622", "object_type": "PAYLOAD", "criticality_score": 9.0, "last_updated": "2026-06-12T12:52:23.908888+00:00", "maneuver_count": 0, "owner": "N/A"}, "10": {"norad_id": "43678", "name": "DIWATA 2B", "tle1": "1 43678U 18084H   26162.90149909  .00002655  00000-0  21608-3 0  9995", "tle2": "2 43678  98.1180 358.8808 0012213 187.2831 172.8216 15.00428452415420", "object_type": "PAYLOAD", "criticality_score": 9.0, "last_updated": "2026-06-12T12:52:23.908888+00:00", "maneuver_count": 0, "owner": "N/A"}, "11": {"norad_id": "43677", "name": "TEN-KOH", "tle1": "1 43677U 18084G   26162.53115580  .00002116  00000-0  16240-3 0  9999", "tle2": "2 43677  98.0781 354.6565 0010975 131.3558 228.8611 15.02920830415316", "object_type": "PAYLOAD", "criticality_score": 9.0, "last_updated": "2026-06-12T12:52:23.908888+00:00", "maneuver_count": 0, "owner": "N/A"}, "42": {"norad_id": "43681", "name": "AUTCUBE 2", "tle1": "1 43681U 18084K   26162.53175330  .00003559  00000-0  22292-3 0  9999", "tle2": "2 43681  98.0717   8.4070 0010208  66.2534 293.9763 15.10050735416076", "object_type": "PAYLOAD", "criticality_score": 9.0, "last_updated": "2026-06-12T12:52:23.908888+00:00", "maneuver_count": 0, "owner": "N/A"}, "43": {"norad_id": "43656", "name": "CZ-4B R/B", "tle1": "1 43656U 18081B   26162.73459920  .00000083  00000-0  42770-4 0  9993", "tle2": "2 43656  99.3683  80.2248 0203752 282.5636  75.2826 14.31864226398523", "object_type": "ROCKET_BODY", "criticality_score": 9.0, "last_updated": "2026-06-12T12:52:23.908888+00:00", "maneuver_count": 0, "owner": "N/A"}, "76": {"norad_id": "43186", "name": "S-NET D", "tle1": "1 43186U 18014G   26162.98582668  .00004294  00000-0  22293-3 0  9995", "tle2": "2 43186  97.5372  67.8093 0009434  46.1406 314.0605 15.16623951457971", "object_type": "PAYLOAD", "criticality_score": 9.0, "last_updated": "2026-06-12T12:52:23.908888+00:00", "maneuver_count": 0, "owner": "N/A"}, "77": {"norad_id": "43189", "name": "S-NET C", "tle1": "1 43189U 18014K   26162.67113180  .00004973  00000-0  25777-3 0  9997", "tle2": "2 43189  97.5404  67.7643 0011029  35.4781 324.7183 15.16583570456475", "object_type": "PAYLOAD", "criticality_score": 9.0, "last_updated": "2026-06-12T12:52:23.908888+00:00", "maneuver_count": 0, "owner": "N/A"}, "78": {"norad_id": "43187", "name": "S-NET B", "tle1": "1 43187U 18014H   26162.73326255  .00004765  00000-0  24717-3 0  9993", "tle2": "2 43187  97.5378  67.5446 0009958  42.2656 317.9343 15.16592344457930", "object_type": "PAYLOAD", "criticality_score": 9.0, "last_updated": "2026-06-12T12:52:23.908888+00:00", "maneuver_count": 0, "owner": "N/A"}, "79": {"norad_id": "43188", "name": "S-NET A", "tle1": "1 43188U 18014J   26162.72082206  .00004327  00000-0  22453-3 0  9997", "tle2": "2 43188  97.5388  67.7398 0009847  43.1427 317.0576 15.16629419457936", "object_type": "PAYLOAD", "criticality_score": 9.0, "last_updated": "2026-06-12T12:52:23.908888+00:00", "maneuver_count": 0, "owner": "N/A"}, "105": {"norad_id": "43689", "name": "METOP-C", "tle1": "1 43689U 18087A   26162.85937697  .00000077  00000-0  55142-4 0  9990", "tle2": "2 43689  98.6645 222.5601 0001576 135.3148 224.8156 14.21510658394076", "object_type": "PAYLOAD", "criticality_score": 9.0, "last_updated": "2026-06-12T12:52:23.908888+00:00", "maneuver_count": 0, "owner": "N/A"}, "106": {"norad_id": "43679", "name": "STARS-AO", "tle1": "1 43679U 18084J   26162.53294134  .00005880  00000-0  30143-3 0  9993", "tle2": "2 43679  98.0515  16.1563 0002518 149.6386 210.4991 15.16990917416616", "object_type": "PAYLOAD", "criticality_score": 9.0, "last_updated": "2026-06-12T12:52:23.908888+00:00", "maneuver_count": 0, "owner": "N/A"}, "137": {"norad_id": "43485", "name": "LUOJIA-1 01", "tle1": "1 43485U 18048B   26162.92652396  .00001854  00000-0  21150-3 0  9994", "tle2": "2 43485  97.8104 241.1985 0009968 132.0303 228.1763 14.87267070433437", "object_type": "PAYLOAD", "criticality_score": 9.0, "last_updated": "2026-06-12T12:52:23.908888+00:00", "maneuver_count": 0, "owner": "N/A"}, "194": {"norad_id": "43159", "name": "JILIN-01-07", "tle1": "1 43159U 18008E   26162.94196956  .00008410  00000-0  25245-3 0  9999", "tle2": "2 43159  97.1773 183.0103 0010157  80.7992 279.4400 15.34634881464196", "object_type": "PAYLOAD", "criticality_score": 9.0, "last_updated": "2026-06-12T12:52:23.908888+00:00", "maneuver_count": 0, "owner": "N/A"}, "195": {"norad_id": "43160", "name": "JILIN-01-08", "tle1": "1 43160U 18008F   26162.93879110  .00006211  00000-0  19305-3 0  9997", "tle2": "2 43160  97.1806 182.3292 0008101  94.3486 265.8683 15.33653419464145", "object_type": "PAYLOAD", "criticality_score": 9.0, "last_updated": "2026-06-12T12:52:23.908888+00:00", "maneuver_count": 0, "owner": "N/A"}, "226": {"norad_id": "43441", "name": "ZHUHAI-1 OHS-02", "tle1": "1 43441U 18040C   26162.97018237  .00006903  00000-0  27246-3 0  9995", "tle2": "2 43441  97.0375 187.4435 0007567 241.9710 118.0764 15.25805417113482", "object_type": "PAYLOAD", "criticality_score": 9.0, "last_updated": "2026-06-12T12:52:23.908888+00:00", "maneuver_count": 0, "owner": "N/A"}, "233": {"norad_id": "43440", "name": "ZHUHAI-1 OVS-02", "tle1": "1 43440U 18040B   26162.98218992  .00006930  00000-0  28072-3 0  9993", "tle2": "2 43440  97.0390 180.5205 0001485 277.6848  82.4222 15.24956347451923", "object_type": "PAYLOAD", "criticality_score": 9.0, "last_updated": "2026-06-12T12:52:23.908888+00:00", "maneuver_count": 0, "owner": "N/A"}, "291": {"norad_id": "43618", "name": "SSTL S1-4", "tle1": "1 43618U 18071A   26162.93863839  .00001617  00000-0  14841-3 0  9991", "tle2": "2 43618  97.5049  34.7719 0001524 101.9347 258.2046 14.96177558422150", "object_type": "PAYLOAD", "criticality_score": 9.0, "last_updated": "2026-06-12T12:52:23.908888+00:00", "maneuver_count": 0, "owner": "N/A"}, "292": {"norad_id": "43717", "name": "MOHAMMED VI-B", "tle1": "1 43717U 18095A   26162.96084454  .00000511  00000-0  79464-4 0  9993", "tle2": "2 43717  97.9557 235.3579 0001244  95.6187 264.5165 14.77110203407418", "object_type": "PAYLOAD", "criticality_score": 9.0, "last_updated": "2026-06-12T12:52:23.908888+00:00", "maneuver_count": 0, "owner": "N/A"}, "305": {"norad_id": "43226", "name": "GOES 17", "tle1": "1 43226U 18022A   26162.89065808 -.00000167  00000-0  00000-0 0  9996", "tle2": "2 43226   0.9230  85.8045 0000463  25.2793  20.2934  1.00270721 30377", "object_type": "PAYLOAD", "criticality_score": 9.0, "last_updated": "2026-06-12T12:52:23.908888+00:00", "maneuver_count": 0, "owner": "N/A"}, "417": {"norad_id": "43152", "name": "ASNARO-2", "tle1": "1 43152U 18007A   26162.99358061  .00008680  00000-0  37840-3 0  9996", "tle2": "2 43152  97.3971 170.0016 0001861  93.2430 266.9019 15.22416738466621", "object_type": "PAYLOAD", "criticality_score": 9.0, "last_updated": "2026-06-12T12:52:23.908888+00:00", "maneuver_count": 0, "owner": "N/A"}, "421": {"norad_id": "43719", "name": "HYSIS", "tle1": "1 43719U 18096A   26162.93326251  .00000612  00000-0  90531-4 0  9997", "tle2": "2 43719  97.9843 229.7223 0001793 111.0098 249.1305 14.78683592406640", "object_type": "PAYLOAD", "criticality_score": 9.0, "last_updated": "2026-06-12T12:52:23.908888+00:00", "maneuver_count": 0, "owner": "N/A"}, "422": {"norad_id": "43662", "name": "CFOSAT", "tle1": "1 43662U 18083A   26162.94662203  .00003089  00000-0  16265-3 0  9993", "tle2": "2 43662  97.3602 167.6319 0002423  94.6306 265.5204 15.16342358421641", "object_type": "PAYLOAD", "criticality_score": 9.0, "last_updated": "2026-06-12T12:52:23.908888+00:00", "maneuver_count": 0, "owner": "N/A"}, "440": {"norad_id": "43609", "name": "HAIYANG 1C", "tle1": "1 43609U 18068A   26162.94278248  .00000035  00000-0  28127-4 0  9998", "tle2": "2 43609  98.5191 235.3263 0012011 108.0478 252.2016 14.34177061406332", "object_type": "PAYLOAD", "criticality_score": 9.0, "last_updated": "2026-06-12T12:52:23.908888+00:00", "maneuver_count": 0, "owner": "N/A"}, "480": {"norad_id": "43529", "name": "PAKTES 1A", "tle1": "1 43529U 18056A   26162.99860058  .00001584  00000-0  13521-3 0  9998", "tle2": "2 43529  98.1301 319.2641 0022353 122.3706 237.9683 14.99085366431141", "object_type": "PAYLOAD", "criticality_score": 9.0, "last_updated": "2026-06-12T12:52:23.908888+00:00", "maneuver_count": 0, "owner": "N/A"}, "482": {"norad_id": "43530", "name": "PRSS 1", "tle1": "1 43530U 18056B   26162.92343141  .00000128  00000-0  22582-4 0  9993", "tle2": "2 43530  97.7822 230.9387 0001697  75.9996 284.1406 14.81978358427655", "object_type": "PAYLOAD", "criticality_score": 9.0, "last_updated": "2026-06-12T12:52:23.908888+00:00", "maneuver_count": 0, "owner": "N/A"}, "532": {"norad_id": "43236", "name": "LKW-4", "tle1": "1 43236U 18025A   26162.95454698  .00040756  00000-0  46969-3 0  9990", "tle2": "2 43236  97.6337 333.4201 0001786 319.7690  40.3434 15.61859911459213", "object_type": "PAYLOAD", "criticality_score": 9.0, "last_updated": "2026-06-12T12:52:23.908888+00:00", "maneuver_count": 0, "owner": "N/A"}, "535": {"norad_id": "43655", "name": "HAIYANG 2B", "tle1": "1 43655U 18081A   26162.94021534 -.00000328  00000-0 -27640-3 0  9993", "tle2": "2 43655  99.3288 171.7754 0000643  11.5131 348.6035 13.79305093384207", "object_type": "PAYLOAD", "criticality_score": 9.0, "last_updated": "2026-06-12T12:52:23.908888+00:00", "maneuver_count": 0, "owner": "N/A"}, "608": {"norad_id": "43751", "name": "COSMOS 2530", "tle1": "1 43751U 18097A   26162.98341481  .00000099  00000-0  64248-3 0  9995", "tle2": "2 43751  82.5147 225.5096 0020370  50.5888 309.6991 12.42881247341648", "object_type": "PAYLOAD", "criticality_score": 9.0, "last_updated": "2026-06-12T12:52:23.908888+00:00", "maneuver_count": 0, "owner": "N/A"}, "641": {"norad_id": "43215", "name": "PAZ", "tle1": "1 43215U 18020A   26162.96928392  .00001572  00000-0  78004-4 0  9999", "tle2": "2 43215  97.4447 170.4292 0001685  88.0451 272.0977 15.19154494460213", "object_type": "PAYLOAD", "criticality_score": 9.0, "last_updated": "2026-06-12T12:52:23.908888+00:00", "maneuver_count": 0, "owner": "N/A"}}}